NORAD_CAT_ID,OBJECT_NAME,OBJECT_TYPE,EPOCH,MEAN_MOTION,ECCENTRICITY,INCLINATION,RA_OF_ASC_NODE,ARG_OF_PERICENTER,MEAN_ANOMALY,BSTAR,MEAN_MOTION_DOT,MEAN_MOTION_DDOT,TLE_LINE0,TLE_LINE1,TLE_LINE2,SEMIMAJOR_AXIS,PERIOD,APOGEE,PERIGEE,DECAYED
52374.0,STARLINK-3762,PAYLOAD,2022-07-24 06:00:00,15.39431463,0.000145,53.2175,16.1457,56.9028,108.3308,-0.0292209999999999,-0.01067279,0.0,0 STARLINK-3762,1 52374U 22045AV  22205.25001157 -.01067279  00000-0 -29221-1 0  9997,2 52374  53.2175  16.1457 0001450  56.9028 108.3308 15.39431463 15952,6825.926,93.541,448.781,446.802,0.0
52374.0,STARLINK-3762,PAYLOAD,2022-07-24 14:00:01,15.38672101,0.0001489,53.2176,14.5801,58.8371,154.2858,-0.029965,-0.01067378,0.0,0 STARLINK-3762,1 52374U 22045AV  22205.58334491 -.01067378  00000-0 -29965-1 0  9998,2 52374  53.2176  14.5801 0001489  58.8371 154.2858 15.38672101  1301,6828.172,93.587,451.054,449.02,0.0
52374.0,STARLINK-3762,PAYLOAD,2022-07-24 22:00:00,15.37910377,0.0001289,53.2174,13.0173,72.7267,187.3729,-0.030587,-0.01062968,0.0,0 STARLINK-3762,1 52374U 22045AV  22205.91667824 -.01062968  00000-0 -30587-1 0  9996,2 52374  53.2174  13.0173 0001289  72.7267 187.3729 15.37910377  1305,6830.427,93.634,453.172,451.411,0.0
52374.0,STARLINK-3762,PAYLOAD,2022-07-25 06:00:00,15.37153426,0.000129,53.2175,11.453,56.4699,249.6946,-0.0315089999999999,-0.01067848,0.0,0 STARLINK-3762,1 52374U 22045AV  22206.25001157 -.01067848  00000-0 -31509-1 0  9992,2 52374  53.2175  11.4530 0001290  56.4699 249.6946 15.37153426 16117,6832.669,93.68,455.415,453.652,0.0
52374.0,STARLINK-3762,PAYLOAD,2022-07-25 14:00:01,15.3639536,0.0001351,53.2177,9.8928,51.1217,300.1935,-0.032364,-0.01069965,0.0,0 STARLINK-3762,1 52374U 22045AV  22206.58334491 -.01069965  00000-0 -32364-1 0  9990,2 52374  53.2177   9.8928 0001351  51.1217 300.1935 15.36395360  1307,6834.916,93.726,457.704,455.858,0.0
52374.0,STARLINK-3762,PAYLOAD,2022-07-25 22:00:00,15.35633368,0.0001203,53.2174,8.3354,62.3697,333.1845,-0.033013,-0.01065238,0.0,0 STARLINK-3762,1 52374U 22045AV  22206.91667824 -.01065238  00000-0 -33013-1 0  9997,2 52374  53.2174   8.3354 0001203  62.3697 333.1845 15.35633368  1301,6837.177,93.772,459.864,458.219,0.0
52374.0,STARLINK-3762,PAYLOAD,2022-07-26 14:00:01,15.34115686,0.0001576999999999,53.2176,5.2218,48.5386,72.7562,-0.034758,-0.01068061,0.0,0 STARLINK-3762,1 52374U 22045AV  22207.58334491 -.01068061  00000-0 -34758-1 0  9996,2 52374  53.2176   5.2218 0001577  48.5386  72.7562 15.34115686  1302,6841.685,93.865,464.629,462.471,0.0
52374.0,STARLINK-3762,PAYLOAD,2022-07-26 22:00:00,15.33352993,0.0001626,53.2174,3.6695,47.9563,114.84,-0.035392,-0.01061977,0.0,0 STARLINK-3762,1 52374U 22045AV  22207.91667824 -.01061977  00000-0 -35392-1 0  9996,2 52374  53.2174   3.6695 0001626  47.9563 114.8400 15.33352993  1308,6843.954000000002,93.912,466.932,464.706,0.0
52374.0,STARLINK-3762,PAYLOAD,2022-07-27 06:00:02,15.32594584,0.0001561999999999,53.2174,2.1159,51.6512,151.7981,-0.036326,-0.0106392,0.0,0 STARLINK-3762,1 52374U 22045AV  22208.25002315 -.01063920  00000-0 -36326-1 0  9990,2 52374  53.2174   2.1159 0001562  51.6512 151.7981 15.32594584 16417,6846.212,93.958,469.146,467.007,0.0
52374.0,STARLINK-3762,PAYLOAD,2022-07-27 14:00:01,15.31835639,0.0001633,53.2176,0.5672,48.2145,194.8456,-0.037235,-0.01064685,0.0,0 STARLINK-3762,1 52374U 22045AV  22208.58334491 -.01064685  00000-0 -37235-1 0  9998,2 52374  53.2176   0.5672 0001633  48.2145 194.8456 15.31835639  1309,6848.473000000001,94.005,471.456,469.219,0.0
52374.0,STARLINK-3762,PAYLOAD,2022-07-27 22:00:00,15.31076615,0.0001583,53.2172,359.0198,44.3579,237.4645,-0.038132,-0.01064643,0.0,0 STARLINK-3762,1 52374U 22045AV  22208.91667824 -.01064643  00000-0 -38132-1 0  9995,2 52374  53.2172 359.0198 0001583  44.3579 237.4645 15.31076615  1307,6850.736,94.051,473.685,471.516,0.0
52374.0,STARLINK-3762,PAYLOAD,2022-07-28 08:00:01,15.30126219,0.0001450999999999,53.2174,357.0852,47.6268,11.3681,-0.039282,-0.01064641,0.0,0 STARLINK-3762,1 52374U 22045AV  22209.33334491 -.01064641  00000-0 -39282-1 0  9998,2 52374  53.2174 357.0852 0001451  47.6268  11.3681 15.30126219 16589,6853.571999999999,94.11,476.432,474.443,0.0
52374.0,STARLINK-3762,PAYLOAD,2022-07-28 14:00:01,15.29558548,0.0001518,53.2177,355.9283,43.0792,313.5315,-0.040066,-0.01066723,0.0,0 STARLINK-3762,1 52374U 22045AV  22209.58334491 -.01066723  00000-0 -40066-1 0  9990,2 52374  53.2177 355.9283 0001518  43.0792 313.5315 15.29558548  1300,6855.268,94.145,478.174,476.092,0.0
52374.0,STARLINK-3762,PAYLOAD,2022-07-28 22:00:00,15.28798519,0.0001367,53.2172,354.3864,50.1195,342.5159,-0.0409459999999999,-0.01064924,0.0,0 STARLINK-3762,1 52374U 22045AV  22209.91667824 -.01064924  00000-0 -40946-1 0  9994,2 52374  53.2172 354.3864 0001367  50.1195 342.5159 15.28798519  1302,6857.54,94.192,480.342,478.467,0.0
52374.0,STARLINK-3762,PAYLOAD,2022-07-29 06:00:00,15.28037369,0.0001506999999999,53.2174,352.8436,44.2035,23.5465,-0.041866,-0.01063743,0.0,0 STARLINK-3762,1 52374U 22045AV  22210.25001157 -.01063743  00000-0 -41866-1 0  9994,2 52374  53.2174 352.8436 0001507  44.2035  23.5465 15.28037369 16722,6859.816999999999,94.239,482.716,480.648,0.0
52374.0,STARLINK-3762,PAYLOAD,2022-07-29 14:00:01,15.27278974,0.0001728,53.2176,351.3058,41.2457,60.7028,-0.0429149999999999,-0.01065239,0.0,0 STARLINK-3762,1 52374U 22045AV  22210.58334491 -.01065239  00000-0 -42915-1 0  9998,2 52374  53.2176 351.3058 0001728  41.2457  60.7028 15.27278974  1302,6862.0880000000025,94.285,485.138,482.767,0.0
52374.0,STARLINK-3762,PAYLOAD,2022-07-29 22:00:00,15.2651934,0.0001505,53.2172,349.7689,54.7579,80.4772,-0.043868,-0.0106399,0.0,0 STARLINK-3762,1 52374U 22045AV  22210.91667824 -.01063990  00000-0 -43868-1 0  9994,2 52374  53.2172 349.7689 0001505  54.7579  80.4772 15.26519340  1305,6864.364000000001,94.332,487.262,485.196,0.0
52374.0,STARLINK-3762,PAYLOAD,2022-07-30 06:00:00,15.25759782,0.0001608,53.2173,348.2317,50.8582,116.7526,-0.044933,-0.01064892,0.0,0 STARLINK-3762,1 52374U 22045AV  22211.25001157 -.01064892  00000-0 -44933-1 0  9999,2 52374  53.2173 348.2317 0001608  50.8582 116.7526 15.25759782 16876,6866.642,94.379,489.611,487.403,0.0
52374.0,STARLINK-3762,PAYLOAD,2022-07-30 14:00:01,15.24998423,0.0001666999999999,53.2176,346.6993,51.3006,147.7717,-0.04582,-0.010615,0.0,0 STARLINK-3762,1 52374U 22045AV  22211.58334491 -.01061500  00000-0 -45820-1 0  9994,2 52374  53.2176 346.6993 0001667  51.3006 147.7717 15.24998423  1307,6868.927,94.426,491.937,489.647,0.0
52374.0,STARLINK-3762,PAYLOAD,2022-07-30 22:00:00,15.2424218,0.0001431999999999,53.2172,345.1676,65.0482,164.5718,-0.047115,-0.01066427,0.0,0 STARLINK-3762,1 52374U 22045AV  22211.91667824 -.01066427  00000-0 -47115-1 0  9992,2 52374  53.2172 345.1676 0001432  65.0482 164.5718 15.24242180  1305,6871.199000000001,94.473,494.048,492.08,0.0
52374.0,STARLINK-3762,PAYLOAD,2022-07-31 06:00:02,15.23480114,0.000149,53.2174,343.6356,54.8669,204.455,-0.048019,-0.01062684,0.0,0 STARLINK-3762,1 52374U 22045AV  22212.25002315 -.01062684  00000-0 -48019-1 0  9993,2 52374  53.2174 343.6356 0001490  54.8669 204.4550 15.23480114 17026,6873.49,94.52,496.379,494.331,0.0
52374.0,STARLINK-3762,PAYLOAD,2022-07-31 14:00:01,15.22720285,0.0001593,53.2175,342.1089,47.9122,240.0689,-0.0490569999999999,-0.01061443,0.0,0 STARLINK-3762,1 52374U 22045AV  22212.58334491 -.01061443  00000-0 -49057-1 0  9997,2 52374  53.2175 342.1089 0001593  47.9122 240.0689 15.22720285  1303,6875.776999999999,94.568,498.737,496.546,0.0
52374.0,STARLINK-3762,PAYLOAD,2022-07-31 22:00:00,15.21964439,0.0001305,53.2172,340.5822,62.3557,253.4352,-0.050485,-0.01067473,0.0,0 STARLINK-3762,1 52374U 22045AV  22212.91667824 -.01067473  00000-0 -50485-1 0  9999,2 52374  53.2172 340.5822 0001305  62.3557 253.4352 15.21964439  1306,6878.053000000001,94.615,500.815,499.02,0.0
52374.0,STARLINK-3762,PAYLOAD,2022-08-01 06:00:00,15.21200064,0.0001353,53.2174,339.0559,53.659,289.0332,-0.05125,-0.01060091,0.0,0 STARLINK-3762,1 52374U 22045AV  22213.25001157 -.01060091  00000-0 -51250-1 0  9998,2 52374  53.2174 339.0559 0001353  53.6590 289.0332 15.21200064 17184,6880.357,94.662,503.153,501.291,0.0
52374.0,STARLINK-3762,PAYLOAD,2022-08-01 14:00:01,15.20443156,0.0001463,53.2175,337.5343,49.3052,319.3706,-0.052584,-0.01063425,0.0,0 STARLINK-3762,1 52374U 22045AV  22213.58334491 -.01063425  00000-0 -52584-1 0  9999,2 52374  53.2175 337.5343 0001463  49.3052 319.3706 15.20443156  1305,6882.64,94.709,505.512,503.49800000000016,0.0
52374.0,STARLINK-3762,PAYLOAD,2022-08-01 22:00:00,15.19684669,0.0001376999999999,53.2172,336.0129,53.438,340.3107,-0.053858,-0.01065063,0.0,0 STARLINK-3762,1 52374U 22045AV  22213.91667824 -.01065063  00000-0 -53858-1 0  9990,2 52374  53.2172 336.0129 0001377  53.4380 340.3107 15.19684669  1305,6884.93,94.756,507.74300000000005,505.847,0.0
52374.0,STARLINK-3762,PAYLOAD,2022-08-02 06:00:02,15.18921928,0.0001424,53.2174,334.4918,52.4139,5.5608,-0.054822,-0.01060657,0.0,0 STARLINK-3762,1 52374U 22045AV  22214.25002315 -.01060657  00000-0 -54822-1 0  9992,2 52374  53.2174 334.4918 0001424  52.4139   5.5608 15.18921928 17336,6887.235,94.804,510.08,508.119,0.0
52374.0,STARLINK-3762,PAYLOAD,2022-08-02 14:00:01,15.1816476,0.0001749,53.2176,332.9759,41.3887,39.7683,-0.0562159999999999,-0.01077225,0.0,0 STARLINK-3762,1 52374U 22045AV  22214.58334491 -.01077225  00000-0 -56216-1 0  9999,2 52374  53.2176 332.9759 0001749  41.3887  39.7683 15.18164760  1306,6889.524,94.851,512.594,510.184,0.0
52374.0,STARLINK-3762,PAYLOAD,2022-08-03 06:00:00,15.16644843,0.0001439,53.2175,329.944,64.8346,60.0815,-0.058676,-0.01076141,0.0,0 STARLINK-3762,1 52374U 22045AV  22215.25001157 -.01076141  00000-0 -58676-1 0  9992,2 52374  53.2175 329.9440 0001439  64.8346  60.0815 15.16644843 17487,6894.126,94.946,516.984,514.999,0.0
